Titan;mercury_x_effect_end_km_s2;-2.3848540570060947e-06;7.319477165013644e-06;9.704331222019739e-06;-2.6645682112055444e-05;3.1580305220062995e-05;0
Titan;Venus_x_effect_end_km_s2;9.789621745595875e-14;1.2525156756158672e-13;2.735535010562797e-14;2.9507842191888815e-14;1.9363994282565665e-13;0
Titan;Earth_x_effect_end_km_s2;-6.64120880109757e-13;-6.34222760581824e-13;2.9898119527933e-14;-7.388661789295894e-13;-5.594774617619914e-13;0
Titan;mars_x_effect_end_km_s2;-1.252186186388984e-17;-1.2434035243199049e-17;8.782662069079177e-20;-1.274142841561682e-17;-1.221446869147207e-17;0
Titan;Moon_x_effect_end_km_s2;3.00952847282046e-08;3.6938974490269746e-08;6.843689762065148e-09;1.2986060323041727e-08;5.404819889543262e-08;0
Titan;Jupiter_x_effect_end_km_s2;6.870756670825493e-14;8.919220651328304e-14;2.0484639805028107e-14;1.7495967195684667e-14;1.404038060258533e-13;0
Titan;Saturn_x_effect_end_km_s2;7.754735490713524e-14;1.061128290201418e-13;2.8565474113006564e-14;6.133669624618825e-15;1.7752651430265822e-13;0
Titan;Uranus_x_effect_end_km_s2;1.2617503226500658e-14;1.6117234017330956e-14;3.4997307908302986e-15;3.868176249424911e-15;2.4866560994406705e-14;0
Titan;Neptune_x_effect_end_km_s2;9.544004850332442e-16;1.3052924008172565e-15;3.508919157840123e-16;7.717069557321345e-17;2.182522190277287e-15;0
Titan;Pluto_x_effect_end_km_s2;5.794646316496316e-12;9.712261539111072e-12;3.917615222614755e-12;-3.999391740040571e-12;1.950629959564796e-11;0
Titan;Sun_y_effect_end_km_s2;-2.289868709078795e-05;-2.2222804389591812e-05;6.75882701196136e-07;-2.458839384377829e-05;-2.0533097636601472e-05;0
Titan;mercury_y_effect_end_km_s2;-1.4687030296099322e-12;-1.341540907215716e-12;1.2716212239421613e-13;-1.7866083355954724e-12;-1.0236356012301756e-12;0
Titan;Venus_y_effect_end_km_s2;4.083293591907003e-14;4.6864557229641255e-14;6.031621310571224e-15;2.575388264264197e-14;6.194361050606932e-14;0
Titan;Earth_y_effect_end_km_s2;3.033963839564208e-17;3.228100230028241e-17;1.9413639046403307e-18;2.5486228634041253e-17;3.713441206188324e-17;0
Titan;Mars_y_effect_end_km_s2;-2.950941889455736e-09;-2.9459601717286323e-09;4.981717727103644e-12;-2.9633961837734952e-09;-2.9335058774108734e-09;0
Titan;Moon_y_effect_end_km_s2;-7.858477216103196e-15;-6.129427256283406e-15;1.7290499598197902e-15;-1.2181102115652671e-14;-1.806802356733931e-15;0
Titan;Jupiter_y_effect_end_km_s2;-1.0359771404281118e-14;-6.764806069443851e-15;3.594965334837267e-15;-1.9347184741374284e-14;2.2226072676493165e-15;0
Titan;Saturn_y_effect_end_km_s2;-1.5437696056972066e-15;-8.516007027879263e-16;6.921689029092803e-16;-3.2741918629704073e-15;8.788215544852744e-16;0
Titan;Uranus_y_effect_end_km_s2;-1.2738272988668106e-16;-8.328898123703667e-17;4.409374864964439e-17;-2.37617101510792e-16;2.6945390387074303e-17;0
Titan;Neptune_y_effect_end_km_s2;-1.0841091514599286e-12;-1.0353277529629405e-12;4.878139849698811e-14;-1.206062647702399e-12;-9.133742567204703e-13;0
Titan;Pluto_y_effect_end_km_s2;1.1138293198167457e-05;1.176091372618516e-05;6.226205280177027e-07;9.581741878123199e-06;1.3317465046229415e-05;0
Titan;Sun_z_effect_end_km_s2;-4.163175678513519e-14;-3.6023607952919236e-14;5.608148832215956e-15;-5.5652128865675084e-14;-2.2003235872379347e-14;0
Titan;Mercury_z_effect_end_km_s2;1.0408385747755435e-14;1.0629742098016108e-14;2.2135635026067275e-16;9.854994872103754e-15;1.118313297366779e-14;0
Uranus;tof_days_d;1388.0603240055789;1524.9125330022334;136.85220899665455;1045.9298015139425;1867.0430554938698;0
Uranus;delta_v_km_s;41.7446301187115;43.95832328713925;2.2136931684277528;36.210397197642116;49.49255620820863;0
Uranus;r1_x_geocentric_km;371.9879158782107;4086.5784675028585;3714.590551624648;-8914.488463183408;13373.054846564479;0
Uranus;r1_y_geocentric_km;0.6338215476517842;3446.6673400409127;3446.033518493261;-8614.449974685502;12061.751136274066;0
Uranus;r1_z_geocentric_km;-5950.663792744279;766.6364423822936;6717.300235126572;-22743.91438056071;17559.887030198723;0
Uranus;orbit_altitude_km;748.9314513954337;1546.6826263830449;797.7511749876112;-1245.4464860735943;3541.060563852073;0
Uranus;semi_major_axis_km;7127.068051395433;7924.819226383044;797.7511749876112;5132.690113926405;9919.197163852072;0
Uranus;eccentricity;0.0198353852792935;0.0832849715050758;0.0634495862257823;-0.13878858028516225;0.24190893706953154;0
Uranus;arg_periapsis_deg;40.12196216399241;249.09300672946063;208.97104456546822;-482.30564924967814;771.5206181431312;0
Uranus;raan_deg;153.57898359225834;296.1181226486394;142.5391390563811;-202.7688640486944;652.4659702895922;0
Uranus;inclination_deg;84.80275406885025;142.13995964371267;57.33720557486242;-58.54025986830581;285.4829735808687;0
Uranus;mean_anomaly_deg;56.36187793791086;235.244798324181;178.88292038627014;-390.84542302776447;682.4520992898564;0
Uranus;eccentric_anomaly_deg;60.51575454219925;232.85842362505815;172.3426690828589;-370.340918164948;663.7150963322053;0
Uranus;true_anomaly_deg;64.76213899905044;230.34628991089932;165.5841509118489;-349.1982382805718;644.3066671905215;0
Uranus;r1_x_km;90254633.00871168;117367871.05536869;27113238.04665701;22471537.892069146;185150966.17201123;0
Uranus;r1_y_km;-112397372.00566971;-88017744.83514483;24379627.17052488;-173346439.93198192;-27068676.908832632;0
Uranus;r1_z_km;-48703773.95240637;-38130648.95453212;10573124.997874252;-75136586.447092;-11697836.459846485;0
Uranus;v1_x_km_s;18.23026036874592;23.395310605499464;5.165050236753544;5.317634776862061;36.30793619738333;0
Uranus;v1_y_km_s;16.26032142042862;21.16312566708968;4.902804246661059;4.003310803775973;33.42013628374233;0
Uranus;v1_z_km_s;7.049283059026738;9.17241264506811;2.1231295860413724;1.7414590939233072;14.480236610171541;0
Uranus;v1_magnitude_km_s;29.350144849212025;29.39988834748703;0.049743498275002906;29.22578610352452;29.524247093174537;0
Uranus;r2_x_km;688958021.2826177;789936336.470814;100978315.1881963;436512233.31212693;1042382124.4413047;0
Uranus;r2_y_km;2770341990.94863;2792145140.789482;21803149.84085226;2715834116.3464994;2846653015.391613;0
Uranus;r2_z_km;54054.23459708692;1442966.7124844491;1388912.4778873622;-3418226.9601213187;4915247.907202855;0
Uranus;v2_x_km_s;-6.661468429003226;-6.599115160020769;0.06235326898245663;-6.817351601459368;-6.443231987564628;0
Uranus;v2_y_km_s;1.3136086341719244;1.5497460984807123;0.2361374643087879;0.7232649733999547;2.140089759252682;0
Uranus;v2_z_km_s;0.0908796359997905;0.0912903835938698;0.0004107475940793026;0.08985276701459224;0.09231725257906806;0
Uranus;v2_magnitude_km_s;6.779259740577891;6.7903710449711765;0.011111304393285337;6.751481479594678;6.81814930595439;0
Uranus;r1_with_gravity_corrected_x_km;90254633.00871512;117367871.05537318;27113238.046658054;22471537.892069995;185150966.1720183;0
Uranus;r1_with_gravity_corrected_y_km;-112397372.00567392;-88017744.83514816;24379627.17052576;-173346439.9319883;-27068676.908833757;0
Uranus;r1_with_gravity_corrected_z_km;-48703773.95240821;-38130648.95453356;10573124.997874647;-75136586.44709483;-11697836.459846944;0
Uranus;r1_total_corrected_x_km;90254633.00871512;117367871.05537318;27113238.046658054;22471537.892069995;185150966.1720183;0
Uranus;r1_total_corrected_y_km;-112397372.00567392;-88017744.83514816;24379627.17052576;-173346439.9319883;-27068676.908833757;0
Uranus;r1_total_corrected_z_km;-48703773.95240821;-38130648.95453356;10573124.997874647;-75136586.44709483;-11697836.459846944;0
Uranus;v1_transfer_x_km_s;32.59829225584592;34.19192927760033;1.593637021754411;28.614199701459892;38.17602183198636;0
Uranus;v1_transfer_y_km_s;27.279276682076407;31.161558210645005;3.8822815285685977;17.573572860654913;40.8672620320665;0
Uranus;v1_transfer_z_km_s;-10.893755038325043;-6.637409494237881;4.2563455440871625;-21.53461889854295;4.003454365980025;0
Uranus;r2_total_corrected_x_km;688958021.2826177;789936336.470814;100978315.1881963;436512233.31212693;1042382124.4413047;0
Uranus;r2_total_corrected_y_km;2770341990.94863;2792145140.789482;21803149.84085226;2715834116.3464994;2846653015.391613;0
Uranus;r2_total_corrected_z_km;54054.23459708692;1442966.7124844491;1388912.4778873622;-3418226.9601213187;4915247.907202855;0
Uranus;v2_transfer_x_km_s;2.2508111325361697;3.5874681708499616;1.336657038313792;-1.09083146324831;6.929110766634441;3
Uranus;v2_transfer_y_km_s;18.649533402649727;20.773749934869326;2.1242165322195987;13.33899207210073;26.084291265418322;0
Uranus;v2_transfer_z_km_s;0.6306749119518879;0.9210044228925914;0.2903295109407036;-0.09514886539987111;1.6468282002443504;0
Uranus;delta_r1_with_gravity_x_km;3.4421682357788086e-06;4.500150680541992e-06;1.0579824447631836e-06;7.972121238708496e-07;7.145106792449951e-06;0
Uranus;delta_r1_with_gravity_y_km;-4.217028617858887e-06;-3.3229589462280278e-06;8.94069671630859e-07;-6.452202796936034e-06;-1.0877847671508802e-06;0
Uranus;delta_r1_with_gravity_z_km;-1.8402934074401851e-06;-1.4528632164001465e-06;3.8743019104003864e-07;-2.8088688850402815e-06;-4.842877388000499e-07;0
Uranus;delta_r1_x_km;3.4421682357788086e-06;4.500150680541992e-06;1.0579824447631836e-06;7.972121238708496e-07;7.145106792449951e-06;0
Uranus;delta_r1_y_km;-4.217028617858887e-06;-3.3229589462280278e-06;8.94069671630859e-07;-6.452202796936034e-06;-1.0877847671508802e-06;0
Uranus;delta_r1_z_km;-1.8402934074401851e-06;-1.4528632164001465e-06;3.8743019104003864e-07;-2.8088688850402815e-06;-4.842877388000499e-07;0
Uranus;delta_r2_x_km;0.0;0.0;0.0;0.0;0.0;0
Uranus;delta_r2_y_km;0.0;0.0;0.0;0.0;0.0;0
Uranus;delta_r2_z_km;0.0;0.0;0.0;0.0;0.0;0
Uranus;ax_J2_km_s2;-2.6401234943362493e-23;-1.421379285565829e-23;1.2187442087704203e-23;-5.686984016262299e-23;1.6254812363602215e-23;0
Uranus;ay_J2_km_s2;1.7500147870698227e-23;1.7700171783087314e-23;2.0002391238908714e-25;1.700008808972551e-23;1.8200231564060033e-23;27
Uranus;az_J2_km_s2;3.367281074201698e-23;3.9123344510051424e-23;5.450533768034444e-24;2.004647632193087e-23;5.274967893013753e-23;0
